{
  "type": "FeatureCollection",
  "features": [
    {
      "type": "Feature",
      "properties": {
        "norad_id": 40889,
        "name": "GSAT0205 (GALILEO 9)",
        "group": "galileo",
        "lat": -13.435112150253945,
        "lon": -142.59668436111428,
        "alt_km": 23214.30765522391,
        "timestamp": "2025-12-03T06:58:43.500313+00:00",
        "meta_object_name": "GSAT0205 (GALILEO 9)",
        "meta_object_id": "2015-045A",
        "meta_epoch": "2025-12-02T03:27:57.508704",
        "meta_mean_motion": 1.70472886,
        "meta_eccentricity": 0.00058353,
        "meta_inclination": 55.0073,
        "meta_ra_of_asc_node": 227.0512,
        "meta_arg_of_pericenter": 38.3993,
        "meta_mean_anomaly": 321.7247,
        "meta_ephemeris_type": 0,
        "meta_classification_type": "U",
        "meta_norad_cat_id": 40889,
        "meta_element_set_no": 999,
        "meta_rev_at_epoch": 6365,
        "meta_bstar": 0,
        "meta_mean_motion_dot": 3.5e-07,
        "meta_mean_motion_ddot": 0,
        "tle_line1": "1 40889U 15045A   25336.14441561  .00000035  00000+0  00000+0 0  9995",
        "tle_line2": "2 40889  55.0073 227.0512 0005835  38.3993 321.7247  1.70472886 63655"
      },
      "geometry": {
        "type": "Point",
        "coordinates": [
          -142.59668436111428,
          -13.435112150253945
        ]
      }
    },
    {
      "type": "Feature",
      "properties": {
        "norad_id": 40890,
        "name": "GSAT0206 (GALILEO 10)",
        "group": "galileo",
        "lat": -22.782799075404313,
        "lon": 64.10189070353952,
        "alt_km": 23235.53025672514,
        "timestamp": "2025-12-03T06:58:43.500339+00:00",
        "meta_object_name": "GSAT0206 (GALILEO 10)",
        "meta_object_id": "2015-045B",
        "meta_epoch": "2025-12-01T18:40:58.746144",
        "meta_mean_motion": 1.70473031,
        "meta_eccentricity": 0.0003438,
        "meta_inclination": 55.0064,
        "meta_ra_of_asc_node": 227.0564,
        "meta_arg_of_pericenter": 30.2471,
        "meta_mean_anomaly": 329.8532,
        "meta_ephemeris_type": 0,
        "meta_classification_type": "U",
        "meta_norad_cat_id": 40890,
        "meta_element_set_no": 999,
        "meta_rev_at_epoch": 6367,
        "meta_bstar": 0,
        "meta_mean_motion_dot": 3.4e-07,
        "meta_mean_motion_ddot": 0,
        "tle_line1": "1 40890U 15045B   25335.77845771  .00000034  00000+0  00000+0 0  9995",
        "tle_line2": "2 40890  55.0064 227.0564 0003438  30.2471 329.8532  1.70473031 63674"
      },
      "geometry": {
        "type": "Point",
        "coordinates": [
          64.10189070353952,
          -22.782799075404313
        ]
      }
    },
    {
      "type": "Feature",
      "properties": {
        "norad_id": 41174,
        "name": "GSAT0209 (GALILEO 12)",
        "group": "galileo",
        "lat": 52.94194578415616,
        "lon": -137.9655448910672,
        "alt_km": 23218.09771212087,
        "timestamp": "2025-12-03T06:58:43.500354+00:00",
        "meta_object_name": "GSAT0209 (GALILEO 12)",
        "meta_object_id": "2015-079A",
        "meta_epoch": "2025-12-01T22:43:10.411392",
        "meta_mean_motion": 1.70474306,
        "meta_eccentricity": 0.0002352,
        "meta_inclination": 55.7062,
        "meta_ra_of_asc_node": 106.6773,
        "meta_arg_of_pericenter": 357.4206,
        "meta_mean_anomaly": 2.5431,
        "meta_ephemeris_type": 0,
        "meta_classification_type": "U",
        "meta_norad_cat_id": 41174,
        "meta_element_set_no": 999,
        "meta_rev_at_epoch": 6141,
        "meta_bstar": 0,
        "meta_mean_motion_dot": 3.5e-07,
        "meta_mean_motion_ddot": 0,
        "tle_line1": "1 41174U 15079A   25335.94664828  .00000035  00000+0  00000+0 0  9990",
        "tle_line2": "2 41174  55.7062 106.6773 0002352 357.4206   2.5431  1.70474306 61412"
      },
      "geometry": {
        "type": "Point",
        "coordinates": [
          -137.9655448910672,
          52.94194578415616
        ]
      }
    },
    {
      "type": "Feature",
      "properties": {
        "norad_id": 41175,
        "name": "GSAT0208 (GALILEO 11)",
        "group": "galileo",
        "lat": -24.544578120982383,
        "lon": 88.46753257270713,
        "alt_km": 23221.253218480466,
        "timestamp": "2025-12-03T06:58:43.500366+00:00",
        "meta_object_name": "GSAT0208 (GALILEO 11)",
        "meta_object_id": "2015-079B",
        "meta_epoch": "2025-11-30T09:46:10.644960",
        "meta_mean_motion": 1.70474193,
        "meta_eccentricity": 0.00018872,
        "meta_inclination": 55.7038,
        "meta_ra_of_asc_node": 106.7167,
        "meta_arg_of_pericenter": 11.7228,
        "meta_mean_anomaly": 348.2564,
        "meta_ephemeris_type": 0,
        "meta_classification_type": "U",
        "meta_norad_cat_id": 41175,
        "meta_element_set_no": 999,
        "meta_rev_at_epoch": 6180,
        "meta_bstar": 0,
        "meta_mean_motion_dot": 4.8e-07,
        "meta_mean_motion_ddot": 0,
        "tle_line1": "1 41175U 15079B   25334.40706765  .00000048  00000+0  00000+0 0  9992",
        "tle_line2": "2 41175  55.7038 106.7167 0001887  11.7228 348.2564  1.70474193 61804"
      },
      "geometry": {
        "type": "Point",
        "coordinates": [
          88.46753257270713,
          -24.544578120982383
        ]
      }
    },
    {
      "type": "Feature",
      "properties": {
        "norad_id": 41549,
        "name": "GSAT0211 (GALILEO 14)",
        "group": "galileo",
        "lat": -51.98925598455957,
        "lon": 109.95620815750046,
        "alt_km": 23233.239960643386,
        "timestamp": "2025-12-03T06:58:43.500378+00:00",
        "meta_object_name": "GSAT0211 (GALILEO 14)",
        "meta_object_id": "2016-030A",
        "meta_epoch": "2025-12-01T16:54:04.942368",
        "meta_mean_motion": 1.70472896,
        "meta_eccentricity": 0.00038995,
        "meta_inclination": 55.1563,
        "meta_ra_of_asc_node": 227.1275,
        "meta_arg_of_pericenter": 10.5053,
        "meta_mean_anomaly": 349.5828,
        "meta_ephemeris_type": 0,
        "meta_classification_type": "U",
        "meta_norad_cat_id": 41549,
        "meta_element_set_no": 999,
        "meta_rev_at_epoch": 5930,
        "meta_bstar": 0,
        "meta_mean_motion_dot": 3.3e-07,
        "meta_mean_motion_ddot": 0,
        "tle_line1": "1 41549U 16030A   25335.70422387  .00000033  00000+0  00000+0 0  9998",
        "tle_line2": "2 41549  55.1563 227.1275 0003899  10.5053 349.5828  1.70472896 59309"
      },
      "geometry": {
        "type": "Point",
        "coordinates": [
          109.95620815750046,
          -51.98925598455957
        ]
      }
    },
    {
      "type": "Feature",
      "properties": {
        "norad_id": 41550,
        "name": "GSAT0210 (GALILEO 13)",
        "group": "galileo",
        "lat": 54.77092517332162,
        "lon": -32.99017126365974,
        "alt_km": 23218.89340642534,
        "timestamp": "2025-12-03T06:58:43.500390+00:00",
        "meta_object_name": "GSAT0210 (GALILEO 13)",
        "meta_object_id": "2016-030B",
        "meta_epoch": "2025-12-01T09:00:06.320160",
        "meta_mean_motion": 1.70473417,
        "meta_eccentricity": 0.00012162,
        "meta_inclination": 55.1557,
        "meta_ra_of_asc_node": 227.1346,
        "meta_arg_of_pericenter": 241.6156,
        "meta_mean_anomaly": 118.4503,
        "meta_ephemeris_type": 0,
        "meta_classification_type": "U",
        "meta_norad_cat_id": 41550,
        "meta_element_set_no": 999,
        "meta_rev_at_epoch": 5929,
        "meta_bstar": 0,
        "meta_mean_motion_dot": 3.2e-07,
        "meta_mean_motion_ddot": 0,
        "tle_line1": "1 41550U 16030B   25335.37507315  .00000032  00000+0  00000+0 0  9997",
        "tle_line2": "2 41550  55.1557 227.1346 0001216 241.6156 118.4503  1.70473417 59296"
      },
      "geometry": {
        "type": "Point",
        "coordinates": [
          -32.99017126365974,
          54.77092517332162
        ]
      }
    },
    {
      "type": "Feature",
      "properties": {
        "norad_id": 41859,
        "name": "GSAT0207 (GALILEO 15)",
        "group": "galileo",
        "lat": -52.672468702067945,
        "lon": 41.59134055641998,
        "alt_km": 23223.28641935819,
        "timestamp": "2025-12-03T06:58:43.500402+00:00",
        "meta_object_name": "GSAT0207 (GALILEO 15)",
        "meta_object_id": "2016-069A",
        "meta_epoch": "2025-11-30T11:31:32.297952",
        "meta_mean_motion": 1.70474248,
        "meta_eccentricity": 0.00020596,
        "meta_inclination": 55.375,
        "meta_ra_of_asc_node": 106.5899,
        "meta_arg_of_pericenter": 325.7449,
        "meta_mean_anomaly": 34.2162,
        "meta_ephemeris_type": 0,
        "meta_classification_type": "U",
        "meta_norad_cat_id": 41859,
        "meta_element_set_no": 999,
        "meta_rev_at_epoch": 5601,
        "meta_bstar": 0,
        "meta_mean_motion_dot": 4.7e-07,
        "meta_mean_motion_ddot": 0,
        "tle_line1": "1 41859U 16069A   25334.48023493  .00000047  00000+0  00000+0 0  9998",
        "tle_line2": "2 41859  55.3750 106.5899 0002059 325.7449  34.2162  1.70474248 56019"
      },
      "geometry": {
        "type": "Point",
        "coordinates": [
          41.59134055641998,
          -52.672468702067945
        ]
      }
    }
  ]
}